ONEWEB-0527             
1 54642U 22166A   25211.53737013  .00000074  00000+0  14729-3 0  9994
2 54642  87.9272 308.1725 0001936  97.5103 262.6251 13.21826708129495
ONEWEB-0528             
1 54643U 22166B   25211.24089725  .00000072  00000+0  14286-3 0  9999
2 54643  87.9277 308.2327 0001996  96.0130 264.1232 13.21826505129468
ONEWEB-0539             
1 54644U 22166C   25211.50423281 -.00000309  00000+0 -77936-3 0  9994
2 54644  87.9270 308.1540 0002270 101.1492 258.9897 13.21829816129492
ONEWEB-0540             
1 54645U 22166D   25211.20791942  .00000113  00000+0  24298-3 0  9998
2 54645  87.9272 308.2453 0002139 103.1627 256.9745 13.21826286129460
ONEWEB-0542             
1 54646U 22166E   25211.51372083  .00000104  00000+0  21975-3 0  9993
2 54646  87.9264 308.1483 0002186 108.9364 251.2007 13.21825818129501
ONEWEB-0545             
1 54647U 22166F   25211.17781759  .00000028  00000+0  35619-4 0  9996
2 54647  87.9273 308.2314 0002416 107.2727 252.8671 13.21826570129439
ONEWEB-0580             
1 54648U 22166G   25210.77252474  .00000064  00000+0  12423-3 0  9996
2 54648  87.9272 308.3096 0002104 109.9667 250.1694 13.21825446128956
ONEWEB-0582             
1 54649U 22166H   25211.49636400  .00000022  00000+0  20836-4 0  9994
2 54649  87.9264 308.1635 0002213 113.0252 247.1116 13.21826137129495
ONEWEB-0583             
1 54650U 22166J   25211.50741681  .00000054  00000+0  99970-4 0  9996
2 54650  87.9270 308.1827 0002127 101.4156 258.7217 13.21825222129512
ONEWEB-0584             
1 54651U 22166K   25211.22512412  .00000144  00000+0  31663-3 0  9998
2 54651  87.9273 308.2231 0002067 111.1928 248.9427 13.21826722129457
ONEWEB-0585             
1 54652U 22166L   25211.25034483 -.00000030  00000+0 -10503-3 0  9995
2 54652  87.9272 308.2042 0001891  96.3948 263.7402 13.21827886129468
ONEWEB-0586             
1 54653U 22166M   25211.56576139  .00000060  00000+0  11290-3 0  9994
2 54653  87.9272 308.1653 0002121 103.8761 256.2609 13.21826386129505
ONEWEB-0587             
1 54654U 22166N   25211.19672790  .00000049  00000+0  86869-4 0  9996
2 54654  87.9273 308.1866 0001864  93.3145 266.8202 13.21827779129609
ONEWEB-0589             
1 54655U 22166P   25211.56260294  .00000011  00000+0 -57018-5 0  9995
2 54655  87.9273 308.1581 0002299 121.8546 238.2812 13.21826207129525
ONEWEB-0590             
1 54656U 22166Q   25210.82914060  .00000084  00000+0  17208-3 0  9995
2 54656  87.9269 308.2818 0001532 105.1846 254.9457 13.21827257129405
ONEWEB-0591             
1 54657U 22166R   25211.22039089  .00000146  00000+0  32116-3 0  9994
2 54657  87.9271 308.2270 0002002 104.1687 255.9669 13.21826186129480
ONEWEB-0592             
1 54658U 22166S   25211.22354701  .00000124  00000+0  26867-3 0  9998
2 54658  87.9277 308.1781 0001934 104.1743 255.9605 13.21825561129373
