[{"OBJECT_NAME":"ONEWEB-0527","OBJECT_ID":"2022-166A","EPOCH":"2025-07-30T12:53:48.779232","MEAN_MOTION":13.21826708,"ECCENTRICITY":0.0001936,"INCLINATION":87.9272,"RA_OF_ASC_NODE":308.1725,"ARG_OF_PERICENTER":97.5103,"MEAN_ANOMALY":262.6251,"EPHEMERIS_TYPE":0,"CLASSIFICATION_TYPE":"U","NORAD_CAT_ID":54642,"ELEMENT_SET_NO":999,"REV_AT_EPOCH":12949,"BSTAR":0.00014729,"MEAN_MOTION_DOT":7.4e-7,"MEAN_MOTION_DDOT":0},{"OBJECT_NAME":"ONEWEB-0528","OBJECT_ID":"2022-166B","EPOCH":"2025-07-30T05:46:53.522400","MEAN_MOTION":13.21826505,"ECCENTRICITY":0.0001996,"INCLINATION":87.9277,"RA_OF_ASC_NODE":308.2327,"ARG_OF_PERICENTER":96.013,"MEAN_ANOMALY":264.1232,"EPHEMERIS_TYPE":0,"CLASSIFICATION_TYPE":"U","NORAD_CAT_ID":54643,"ELEMENT_SET_NO":999,"REV_AT_EPOCH":12946,"BSTAR":0.00014286,"MEAN_MOTION_DOT":7.2e-7,"MEAN_MOTION_DDOT":0},{"OBJECT_NAME":"ONEWEB-0539","OBJECT_ID":"2022-166C","EPOCH":"2025-07-30T12:06:05.714784","MEAN_MOTION":13.21829816,"ECCENTRICITY":0.000227,"INCLINATION":87.927,"RA_OF_ASC_NODE":308.154,"ARG_OF_PERICENTER":101.1492,"MEAN_ANOMALY":258.9897,"EPHEMERIS_TYPE":0,"CLASSIFICATION_TYPE":"U","NORAD_CAT_ID":54644,"ELEMENT_SET_NO":999,"REV_AT_EPOCH":12949,"BSTAR":-0.00077936,"MEAN_MOTION_DOT":-3.09e-6,"MEAN_MOTION_DDOT":0},{"OBJECT_NAME":"ONEWEB-0540","OBJECT_ID":"2022-166D","EPOCH":"2025-07-30T04:59:24.237888","MEAN_MOTION":13.21826286,"ECCENTRICITY":0.0002139,"INCLINATION":87.9272,"RA_OF_ASC_NODE":308.2453,"ARG_OF_PERICENTER":103.1627,"MEAN_ANOMALY":256.9745,"EPHEMERIS_TYPE":0,"CLASSIFICATION_TYPE":"U","NORAD_CAT_ID":54645,"ELEMENT_SET_NO":999,"REV_AT_EPOCH":12946,"BSTAR":0.00024298,"MEAN_MOTION_DOT":1.13e-6,"MEAN_MOTION_DDOT":0},{"OBJECT_NAME":"ONEWEB-0542","OBJECT_ID":"2022-166E","EPOCH":"2025-07-30T12:19:45.479712","MEAN_MOTION":13.21825818,"ECCENTRICITY":0.0002186,"INCLINATION":87.9264,"RA_OF_ASC_NODE":308.1483,"ARG_OF_PERICENTER":108.9364,"MEAN_ANOMALY":251.2007,"EPHEMERIS_TYPE":0,"CLASSIFICATION_TYPE":"U","NORAD_CAT_ID":54646,"ELEMENT_SET_NO":999,"REV_AT_EPOCH":12950,"BSTAR":0.00021975,"MEAN_MOTION_DOT":1.04e-6,"MEAN_MOTION_DDOT":0},{"OBJECT_NAME":"ONEWEB-0545","OBJECT_ID":"2022-166F","EPOCH":"2025-07-30T04:16:03.439776","MEAN_MOTION":13.2182657,"ECCENTRICITY":0.0002416,"INCLINATION":87.9273,"RA_OF_ASC_NODE":308.2314,"ARG_OF_PERICENTER":107.2727,"MEAN_ANOMALY":252.8671,"EPHEMERIS_TYPE":0,"CLASSIFICATION_TYPE":"U","NORAD_CAT_ID":54647,"ELEMENT_SET_NO":999,"REV_AT_EPOCH":12943,"BSTAR":3.5619e-5,"MEAN_MOTION_DOT":2.8e-7,"MEAN_MOTION_DDOT":0},{"OBJECT_NAME":"ONEWEB-0580","OBJECT_ID":"2022-166G","EPOCH":"2025-07-29T18:32:26.137536","MEAN_MOTION":13.21825446,"ECCENTRICITY":0.0002104,"INCLINATION":87.9272,"RA_OF_ASC_NODE":308.3096,"ARG_OF_PERICENTER":109.9667,"MEAN_ANOMALY":250.1694,"EPHEMERIS_TYPE":0,"CLASSIFICATION_TYPE":"U","NORAD_CAT_ID":54648,"ELEMENT_SET_NO":999,"REV_AT_EPOCH":12895,"BSTAR":0.00012423,"MEAN_MOTION_DOT":6.4e-7,"MEAN_MOTION_DDOT":0},{"OBJECT_NAME":"ONEWEB-0582","OBJECT_ID":"2022-166H","EPOCH":"2025-07-30T11:54:45.849600","MEAN_MOTION":13.21826137,"ECCENTRICITY":0.0002213,"INCLINATION":87.9264,"RA_OF_ASC_NODE":308.1635,"ARG_OF_PERICENTER":113.0252,"MEAN_ANOMALY":247.1116,"EPHEMERIS_TYPE":0,"CLASSIFICATION_TYPE":"U","NORAD_CAT_ID":54649,"ELEMENT_SET_NO":999,"REV_AT_EPOCH":12949,"BSTAR":2.0836e-5,"MEAN_MOTION_DOT":2.2e-7,"MEAN_MOTION_DDOT":0},{"OBJECT_NAME":"ONEWEB-0583","OBJECT_ID":"2022-166J","EPOCH":"2025-07-30T12:10:40.812384","MEAN_MOTION":13.21825222,"ECCENTRICITY":0.0002127,"INCLINATION":87.927,"RA_OF_ASC_NODE":308.1827,"ARG_OF_PERICENTER":101.4156,"MEAN_ANOMALY":258.7217,"EPHEMERIS_TYPE":0,"CLASSIFICATION_TYPE":"U","NORAD_CAT_ID":54650,"ELEMENT_SET_NO":999,"REV_AT_EPOCH":12951,"BSTAR":9.997e-5,"MEAN_MOTION_DOT":5.4e-7,"MEAN_MOTION_DDOT":0},{"OBJECT_NAME":"ONEWEB-0584","OBJECT_ID":"2022-166K","EPOCH":"2025-07-30T05:24:10.723968","MEAN_MOTION":13.21826722,"ECCENTRICITY":0.0002067,"INCLINATION":87.9273,"RA_OF_ASC_NODE":308.2231,"ARG_OF_PERICENTER":111.1928,"MEAN_ANOMALY":248.9427,"EPHEMERIS_TYPE":0,"CLASSIFICATION_TYPE":"U","NORAD_CAT_ID":54651,"ELEMENT_SET_NO":999,"REV_AT_EPOCH":12945,"BSTAR":0.00031663,"MEAN_MOTION_DOT":1.44e-6,"MEAN_MOTION_DDOT":0},{"OBJECT_NAME":"ONEWEB-0585","OBJECT_ID":"2022-166L","EPOCH":"2025-07-30T06:00:29.793312","MEAN_MOTION":13.21827886,"ECCENTRICITY":0.0001891,"INCLINATION":87.9272,"RA_OF_ASC_NODE":308.2042,"ARG_OF_PERICENTER":96.3948,"MEAN_ANOMALY":263.7402,"EPHEMERIS_TYPE":0,"CLASSIFICATION_TYPE":"U","NORAD_CAT_ID":54652,"ELEMENT_SET_NO":999,"REV_AT_EPOCH":12946,"BSTAR":-0.00010503,"MEAN_MOTION_DOT":-3.0e-7,"MEAN_MOTION_DDOT":0},{"OBJECT_NAME":"ONEWEB-0586","OBJECT_ID":"2022-166M","EPOCH":"2025-07-30T13:34:41.784096","MEAN_MOTION":13.21826386,"ECCENTRICITY":0.0002121,"INCLINATION":87.9272,"RA_OF_ASC_NODE":308.1653,"ARG_OF_PERICENTER":103.8761,"MEAN_ANOMALY":256.2609,"EPHEMERIS_TYPE":0,"CLASSIFICATION_TYPE":"U","NORAD_CAT_ID":54653,"ELEMENT_SET_NO":999,"REV_AT_EPOCH":12950,"BSTAR":0.0001129,"MEAN_MOTION_DOT":6.0e-7,"MEAN_MOTION_DDOT":0},{"OBJECT_NAME":"ONEWEB-0587","OBJECT_ID":"2022-166N","EPOCH":"2025-07-30T04:43:17.290560","MEAN_MOTION":13.21827779,"ECCENTRICITY":0.0001864,"INCLINATION":87.9273,"RA_OF_ASC_NODE":308.1866,"ARG_OF_PERICENTER":93.3145,"MEAN_ANOMALY":266.8202,"EPHEMERIS_TYPE":0,"CLASSIFICATION_TYPE":"U","NORAD_CAT_ID":54654,"ELEMENT_SET_NO":999,"REV_AT_EPOCH":12960,"BSTAR":8.6869e-5,"MEAN_MOTION_DOT":4.9e-7,"MEAN_MOTION_DDOT":0},{"OBJECT_NAME":"ONEWEB-0589","OBJECT_ID":"2022-166P","EPOCH":"2025-07-30T13:30:08.894016","MEAN_MOTION":13.21826207,"ECCENTRICITY":0.0002299,"INCLINATION":87.9273,"RA_OF_ASC_NODE":308.1581,"ARG_OF_PERICENTER":121.8546,"MEAN_ANOMALY":238.2812,"EPHEMERIS_TYPE":0,"CLASSIFICATION_TYPE":"U","NORAD_CAT_ID":54655,"ELEMENT_SET_NO":999,"REV_AT_EPOCH":12952,"BSTAR":-5.7018e-6,"MEAN_MOTION_DOT":1.1e-7,"MEAN_MOTION_DDOT":0},{"OBJECT_NAME":"ONEWEB-0590","OBJECT_ID":"2022-166Q","EPOCH":"2025-07-29T19:53:57.747840","MEAN_MOTION":13.21827257,"ECCENTRICITY":0.0001532,"INCLINATION":87.9269,"RA_OF_ASC_NODE":308.2818,"ARG_OF_PERICENTER":105.1846,"MEAN_ANOMALY":254.9457,"EPHEMERIS_TYPE":0,"CLASSIFICATION_TYPE":"U","NORAD_CAT_ID":54656,"ELEMENT_SET_NO":999,"REV_AT_EPOCH":12940,"BSTAR":0.00017208,"MEAN_MOTION_DOT":8.4e-7,"MEAN_MOTION_DDOT":0},{"OBJECT_NAME":"ONEWEB-0591","OBJECT_ID":"2022-166R","EPOCH":"2025-07-30T05:17:21.772896","MEAN_MOTION":13.21826186,"ECCENTRICITY":0.0002002,"INCLINATION":87.9271,"RA_OF_ASC_NODE":308.227,"ARG_OF_PERICENTER":104.1687,"MEAN_ANOMALY":255.9669,"EPHEMERIS_TYPE":0,"CLASSIFICATION_TYPE":"U","NORAD_CAT_ID":54657,"ELEMENT_SET_NO":999,"REV_AT_EPOCH":12948,"BSTAR":0.00032116,"MEAN_MOTION_DOT":1.46e-6,"MEAN_MOTION_DDOT":0},{"OBJECT_NAME":"ONEWEB-0592","OBJECT_ID":"2022-166S","EPOCH":"2025-07-30T05:21:54.461664","MEAN_MOTION":13.21825561,"ECCENTRICITY":0.0001934,"INCLINATION":87.9277,"RA_OF_ASC_NODE":308.1781,"ARG_OF_PERICENTER":104.1743,"MEAN_ANOMALY":255.9605,"EPHEMERIS_TYPE":0,"CLASSIFICATION_TYPE":"U","NORAD_CAT_ID":54658,"ELEMENT_SET_NO":999,"REV_AT_EPOCH":12937,"BSTAR":0.00026867,"MEAN_MOTION_DOT":1.24e-6,"MEAN_MOTION_DDOT":0}]
